[{"OBJECT_NAME":"FLOCK 4BE-27","OBJECT_ID":"2024-149AX","EPOCH":"2026-03-09T18:04:53.053248","MEAN_MOTION":15.32593322,"ECCENTRICITY":0.00027324,"INCLINATION":97.3862,"RA_OF_ASC_NODE":150.6783,"ARG_OF_PERICENTER":305.898,"MEAN_ANOMALY":54.2008,"EPHEMERIS_TYPE":0,"CLASSIFICATION_TYPE":"U","NORAD_CAT_ID":60513,"ELEMENT_SET_NO":999,"REV_AT_EPOCH":8690,"BSTAR":0.00036576028,"MEAN_MOTION_DOT":0.00011439,"MEAN_MOTION_DDOT":0},{"OBJECT_NAME":"STARLINK-34160","OBJECT_ID":"2025-110Z","EPOCH":"2026-03-09T03:33:57.655872","MEAN_MOTION":15.30196666,"ECCENTRICITY":0.00012179,"INCLINATION":53.1618,"RA_OF_ASC_NODE":28.9858,"ARG_OF_PERICENTER":65.2368,"MEAN_ANOMALY":294.8759,"EPHEMERIS_TYPE":0,"CLASSIFICATION_TYPE":"U","NORAD_CAT_ID":64119,"ELEMENT_SET_NO":999,"REV_AT_EPOCH":4580,"BSTAR":0.00092403372,"MEAN_MOTION_DOT":0.00027105,"MEAN_MOTION_DDOT":0}]
