FLOCK 4BE-27            
1 60513U 24149AX  26068.75339182  .00011439  00000+0  36576-3 0  9992
2 60513  97.3862 150.6783 0002732 305.8980  54.2008 15.32593322 86906
STARLINK-34160          
1 64119U 25110Z   26068.14858398  .00027105  00000+0  92403-3 0  9993
2 64119  53.1618  28.9858 0001217  65.2368 294.8759 15.30196666 45802
